{"5667745":{"name":"Aegis at Callahan House","zip":"98155","city":"Shoreline"},"5667748":{"name":"Aegis Gardens of Newcastle","zip":"98056","city":"Newcastle"},"5667749":{"name":"Aegis Living at Ravenna","zip":"98115","city":"Seattle"},"5667750":{"name":"Aegis Living West Seattle","zip":"98116","city":"Seattle"},"5667751":{"name":"Aegis Lodge","zip":"98034","city":"Kirkland"},"5667752":{"name":"Aegis of Bellevue","zip":"98004","city":"Bellevue"},"5667753":{"name":"Aegis of Issaquah","zip":"98027","city":"Issaquah"},"5667754":{"name":"Aegis of Kent","zip":"98030","city":"Kent"},"5667755":{"name":"Aegis of Kirkland","zip":"98034","city":"Kirkland"},"5667756":{"name":"Aegis of Lynnwood","zip":"98037","city":"Lynnwood"},"5667757":{"name":"Aegis of Madison","zip":"98112","city":"Seattle"},"5667758":{"name":"Aegis of Marymoor","zip":"98052","city":"Redmond"},"5667759":{"name":"Aegis of Mercer Island","zip":"98040","city":"Mercer Island"},"5667760":{"name":"Aegis of Queen Anne at Rodger's Park","zip":"98119","city":"Seattle"},"5667761":{"name":"Aegis of Queen Anne on Galer","zip":"98119","city":"Seattle"},"5667762":{"name":"Aegis of Redmond","zip":"98052","city":"Redmond"},"5667763":{"name":"Aegis of Shoreline","zip":"98155","city":"Shoreline"},"5667764":{"name":"Alaska Gardens Health and Rehab","zip":"98408","city":"Tacoma"},"5667765":{"name":"Alder House","zip":"98586","city":"South Bend"},"5667766":{"name":"Aldercrest Health &amp; Rehab Center","zip":"98026","city":"Edmonds"},"5667767":{"name":"Alderwood Manor","zip":"99202","city":"Spokane"},"5667768":{"name":"Alderwood Park Health and Rehabilitation","zip":"98225","city":"Bellingham"},"5667769":{"name":"Aljoya Mercer Island","zip":"98040","city":"Mercer Island"},"5667770":{"name":"Aljoya Thornton Place","zip":"98125","city":"Seattle"},"5667771":{"name":"Allegiance Assisted Living","zip":"99109","city":"Chewelah"},"5667772":{"name":"Amber Hills","zip":"99350","city":"Prosser"},"5667773":{"name":"Amber Waves Assisted Living","zip":"98858","city":"Waterville"},"5667774":{"name":"Americana Health &amp; Rehabilitation Center","zip":"98632","city":"Longview"},"5667775":{"name":"Arbor Ridge Assisted Living","zip":"98665","city":"Vancouver"},"5667776":{"name":"Arlington Health and Rehabilitation","zip":"98223","city":"Arlington"},"5667777":{"name":"Aspen Quality Care","zip":"99218","city":"Spokane"},"5667778":{"name":"Avalon Care Center - Federal Way","zip":"98003","city":"Federal Way"},"5667779":{"name":"Avalon Care Center - Othello","zip":"99344","city":"Othello"},"5667780":{"name":"Avalon Care Center - Pasco","zip":"99301","city":"Pasco"},"5667781":{"name":"Avalon Care Center - Pullman","zip":"99163","city":"Pullman"},"5667782":{"name":"Avalon Care Center at Northpointe","zip":"99218","city":"Spokane"},"5667783":{"name":"Avalon Progressive Care","zip":"99403","city":"Clarkston"},"5667784":{"name":"Avamere at Englewood Heights","zip":"98902","city":"Yakima"},"5667785":{"name":"Avamere at Englewood Heights Memory Care","zip":"98902","city":"Yakima"},"5667786":{"name":"Avamere at Moses Lake","zip":"98837","city":"Moses Lake"},"5667787":{"name":"Avamere at Pacific Ridge","zip":"98404","city":"Tacoma"},"5667788":{"name":"Avamere at Port Townsend","zip":"98368","city":"Port Townsend"},"5667789":{"name":"Avamere at South Hill","zip":"99223","city":"Spokane"},"5667790":{"name":"Avamere at Wenatchee","zip":"98801","city":"Wenatchee"},"5667791":{"name":"Avamere Bellingham Health Care and Rehab","zip":"98225","city":"Bellingham"},"5667792":{"name":"Avamere Heritage Rehabilitation of Tacoma","zip":"98408","city":"Tacoma"},"5667793":{"name":"Avamere Olympic Rehabilitation of Sequim","zip":"98382","city":"Sequim"},"5667794":{"name":"Avamere Rehabilitation of Cascade Park","zip":"98683","city":"Vancouver"},"5667795":{"name":"Avamere Transitional Care of Puget Sound","zip":"98465","city":"Tacoma"},"5667796":{"name":"Bailey-Boushay House","zip":"98112","city":"Seattle"},"5667797":{"name":"Bainbridge Island Health &amp; Rehab Center","zip":"98110","city":"Bainbridge Island"},"5667798":{"name":"Ballard Care and Rehabilitation Center","zip":"98117","city":"Seattle"},"5667799":{"name":"Bay Pointe Retirement and Assisted Living","zip":"98312","city":"Bremerton"},"5667800":{"name":"Beacon Hill Rehabilitation","zip":"98632","city":"Longview"},"5667801":{"name":"Beehive Retirement and Assisted Living","zip":"98557","city":"McCleary"},"5667802":{"name":"Benson Heights Rehabilitation Center","zip":"98031","city":"Kent"},"5667803":{"name":"Bethany at Pacific","zip":"98206","city":"Everett"},"5667804":{"name":"Bethany at Silver Crest","zip":"98206","city":"Everett"},"5667805":{"name":"Bethany at Silver Lake","zip":"98208","city":"Everett"},"5667806":{"name":"Birchview Memory Care Community","zip":"98284","city":"Sedro Woolley"},"5667807":{"name":"Bishop Place Senior Living","zip":"99163","city":"Pullman"},"5667808":{"name":"Blossom Creek Memory Care","zip":"98801","city":"Wenatchee"},"5667809":{"name":"Blossom Valley Assisted Living","zip":"98801","city":"Wenatchee"},"5667810":{"name":"Bonaventure of East Wenatchee","zip":"98802","city":"East Wenatchee"},"5667811":{"name":"Bonaventure of Lacey","zip":"98503","city":"Lacey"},"5667812":{"name":"Bonaventure of Salmon Creek","zip":"98686","city":"Vancouver"},"5667813":{"name":"Bonaventure of the Tri-Cities","zip":"99352","city":"Richland"},"5667814":{"name":"Bonaventure of Vancouver","zip":"98662","city":"Vancouver"},"5667815":{"name":"Bothell Health Care","zip":"98021","city":"Bothell"},"5667816":{"name":"Brannan Park Assisted Living &amp; Memory Care","zip":"98002","city":"Auburn"},"5667817":{"name":"Bremerton Health &amp; Rehabilitation Center","zip":"98310","city":"Bremerton"},"5667818":{"name":"Briarwood at Timber Ridge AL","zip":"98027","city":"Issaquah"},"5667819":{"name":"Briarwood at Timber Ridge SNF","zip":"98027","city":"Issaquah"},"5667820":{"name":"Bridgeport Place","zip":"98467","city":"University Place"},"5667821":{"name":"Brighton Court Assisted Living","zip":"99216","city":"Spokane Valley"},"5667822":{"name":"Brookdale Alderwood","zip":"98037","city":"Lynnwood"},"5667823":{"name":"Brookdale Allenmore","zip":"98405","city":"Tacoma"},"5667824":{"name":"Brookdale Arbor Place","zip":"98208","city":"Everett"},"5667825":{"name":"Brookdale at Admiral Heights","zip":"98116","city":"Seattle"},"5667826":{"name":"Brookdale Canyon Lakes","zip":"99337","city":"Kennewick"},"5667827":{"name":"Brookdale College Place","zip":"99324","city":"College Place"},"5667828":{"name":"Brookdale Courtyard Puyallup","zip":"98374","city":"Puyallup"},"5667829":{"name":"Brookdale Everett","zip":"98204","city":"Everett"},"5667830":{"name":"Brookdale Fairhaven","zip":"98225","city":"Bellingham"},"5667831":{"name":"Brookdale Federal Way","zip":"98003","city":"Federal Way"},"5667832":{"name":"Brookdale Fisher's Landing","zip":"98683","city":"Vancouver"},"5667833":{"name":"Brookdale Foundation House","zip":"98003","city":"Federal Way"},"5667834":{"name":"Brookdale Harbor Bay","zip":"98332","city":"Gig Harbor"},"5667835":{"name":"Brookdale Hearthstone Moses Lake","zip":"98837","city":"Moses Lake"},"5667836":{"name":"Brookdale Meadow Springs","zip":"99352","city":"Richland"},"5667837":{"name":"Brookdale Monroe","zip":"98272","city":"Monroe"},"5667838":{"name":"Brookdale Montclair Poulsbo","zip":"98370","city":"Poulsbo"},"5667839":{"name":"Brookdale Nine Mile","zip":"99208","city":"Spokane"},"5667840":{"name":"Brookdale Ocean Shores","zip":"98569","city":"Ocean Shores"},"5667841":{"name":"Brookdale Olympia East","zip":"98506","city":"Olympia"},"5667842":{"name":"Brookdale Olympia West","zip":"98502","city":"Olympia"},"5667843":{"name":"Brookdale Park Place","zip":"99212","city":"Spokane Valley"},"5667845":{"name":"Brookdale Puyallup South","zip":"98375","city":"Puyallup"},"5667846":{"name":"Brookdale Renton","zip":"98057","city":"Renton"},"5667847":{"name":"Brookdale Richland","zip":"99354","city":"Richland"},"5667848":{"name":"Brookdale Silver Lake","zip":"98208","city":"Everett"},"5667849":{"name":"Brookdale Stanwood","zip":"98292","city":"Stanwood"},"5667850":{"name":"Brookdale Torbett","zip":"99354","city":"Richland"},"5667851":{"name":"Brookdale Vancouver Stonebridge","zip":"98662","city":"Vancouver"},"5667852":{"name":"Brookdale Walla Walla","zip":"99362","city":"Walla Walla"},"5667853":{"name":"Brookdale West Seattle","zip":"98126","city":"Seattle"},"5667854":{"name":"Brookdale Yakima","zip":"98908","city":"Yakima"},"5667855":{"name":"Brookfield Health and Rehabilitation of Cascadia","zip":"98604","city":"Battle Ground"},"5667856":{"name":"Buena Vista","zip":"99114","city":"Colville"},"5667857":{"name":"Buena Vista Assisted Living","zip":"99114","city":"Colville"},"5667858":{"name":"Burien Nursing and Rehab","zip":"98146","city":"Burien"},"5667859":{"name":"Callaway Gardens","zip":"99336","city":"Kennewick"},"5667860":{"name":"Canterbury House","zip":"98002","city":"Auburn"},"5667861":{"name":"Careage of Whidbey","zip":"98239","city":"Coupeville"},"5667862":{"name":"Cascade Valley Senior Living","zip":"98223","city":"Arlington"},"5667863":{"name":"Cashmere Care Center","zip":"98815","city":"Cashmere"},"5667864":{"name":"Cedar Ridge Retirement &amp; Assisted Living Community","zip":"98391","city":"Bonney Lake"},"5667865":{"name":"Champion House","zip":"98007","city":"Bellevue"},"5667866":{"name":"Chandler House","zip":"98902","city":"Yakima"},"5667867":{"name":"Chandler's Square Retirement","zip":"98221","city":"Anacortes"},"5667868":{"name":"Channel Point Village","zip":"98550","city":"Hoquiam"},"5667869":{"name":"Chartley House","zip":"98002","city":"Auburn"},"5667870":{"name":"Chateau at Bothell Landing","zip":"98011","city":"Bothell"},"5667871":{"name":"Chateau at Valley Center","zip":"98055","city":"Renton"},"5667872":{"name":"Chateau Pacific","zip":"98087","city":"Lynnwood"},"5667873":{"name":"Chehalis West Assisted Living","zip":"98532","city":"Chehalis"},"5667874":{"name":"Cherrywood Place Retirement","zip":"99208","city":"Spokane"},"5667875":{"name":"Christ the King Community Outreach","zip":"98445","city":"Tacoma"},"5667876":{"name":"Christian Health Care Center","zip":"98264","city":"Lynden"},"5667877":{"name":"Christopher House","zip":"98801","city":"Wenatchee"},"5667878":{"name":"Clallam County Hostelries","zip":"98362","city":"Port Angeles"},"5667879":{"name":"Claremont Senior Living","zip":"98310","city":"Bremerton"},"5667880":{"name":"Clearbrook Inn Living Center","zip":"98383","city":"Silverdale"},"5667881":{"name":"Clearwater Springs Assisted Living","zip":"98665","city":"Vancouver"},"5667882":{"name":"Colonial Court","zip":"99206","city":"Spokane Valley"},"5667883":{"name":"Colonial Vista Post Acute &amp; Rehabilitation Center","zip":"98801","city":"Wenatchee"},"5667884":{"name":"Columbia Crest Care &amp; Rehabilitation","zip":"98837","city":"Moses Lake"},"5667885":{"name":"Columbia Place","zip":"98225","city":"Bellingham"},"5667886":{"name":"Colville Tribal Convalescent Center","zip":"99155","city":"Nespelem"},"5667887":{"name":"Community Pride Senior Living","zip":"99171","city":"St. John"},"5667888":{"name":"Cooks Hill Manor","zip":"98531","city":"Centralia"},"5667889":{"name":"Cordata Court","zip":"98226","city":"Bellingham"},"5667890":{"name":"Cottesmore of Life Care","zip":"98335","city":"Gig Harbor"},"5667891":{"name":"Country Meadow Village, Inc.","zip":"98284","city":"Sedro-Woolley"},"5667892":{"name":"Country Meadows","zip":"98383","city":"Silverdale"},"5667893":{"name":"Courtyard at Crista Shores","zip":"98383","city":"Silverdale"},"5667894":{"name":"Courtyard at Cristwood","zip":"98133","city":"Shoreline"},"5667895":{"name":"Coventry House Assisted Living","zip":"99344","city":"Othello"},"5667896":{"name":"Crescent Health Care","zip":"98908","city":"Yakima"},"5667897":{"name":"Crestwood Health &amp; Rehabilitation Center","zip":"98362","city":"Port Angeles"},"5667898":{"name":"CRISTA Rehab &amp; Skilled Care","zip":"98133","city":"Shoreline"},"5667900":{"name":"Cypress Assisted Living","zip":"98221","city":"Anacortes"},"5667901":{"name":"Daystar Retirement Village","zip":"98126","city":"Seattle"},"5667902":{"name":"Delta Rehabilitation Center, Inc.","zip":"98290","city":"Snohomish"},"5667903":{"name":"Discovery Memory Care","zip":"98382","city":"Sequim"},"5667904":{"name":"Discovery Nursing &amp; Rehab Center","zip":"98663","city":"Vancouver"},"5667905":{"name":"Dungeness Courte Alzheimer's Community","zip":"98382","city":"Sequim"},"5667906":{"name":"Eagle Springs Memory Care Community","zip":"99324","city":"College Place"},"5667907":{"name":"Easthaven Villa","zip":"98597","city":"Yelm"},"5667908":{"name":"Edmonds Landing Retirement","zip":"98020","city":"Edmonds"},"5667909":{"name":"El Dorado West Retirement","zip":"98146","city":"Burien"},"5667910":{"name":"Elmcroft of Chesterley","zip":"98902","city":"Yakima"},"5667911":{"name":"Emerald Care","zip":"98951","city":"Wapato"},"5667912":{"name":"Emerald City Senior Living","zip":"98115","city":"Seattle"},"5667913":{"name":"EmpRes at Auburn","zip":"98002","city":"Auburn"},"5667914":{"name":"Enumclaw Health &amp; Rehab Center","zip":"98022","city":"Enumclaw"},"5667915":{"name":"Epledalen Retirement &amp; Assisted Living","zip":"98815","city":"Cashmere"},"5667916":{"name":"Everett Center","zip":"98204","city":"Everett"},"5667917":{"name":"Evergreen Estates Retirement","zip":"99403","city":"Clarkston"},"5667918":{"name":"Evergreen Fountains","zip":"99216","city":"Spokane Valley"},"5667919":{"name":"Expressions at Enumclaw","zip":"98022","city":"Enumclaw"},"5667920":{"name":"Fairwinds - Brighton Court","zip":"98036","city":"Lynnwood"},"5667921":{"name":"Fairwinds Brittany Park","zip":"98072","city":"Woodinville"},"5667922":{"name":"Fairwinds Spokane","zip":"99218","city":"Spokane"},"5667923":{"name":"Fairwinds-Redmond","zip":"98052","city":"Redmond"},"5667924":{"name":"Family to Family Senior Care","zip":"98075","city":"Sammamish"},"5667925":{"name":"Fieldstone Cooper Point","zip":"98502","city":"Olympia"},"5667926":{"name":"Fieldstone Grandridge","zip":"99336","city":"Kennewick"},"5667927":{"name":"Fieldstone Memory Care Kennewick","zip":"99336","city":"Kennewick"},"5667928":{"name":"Fieldstone Memory Care of Issaquah","zip":"98029","city":"Issaquah"},"5667929":{"name":"Fieldstone Memory Care of Olympia","zip":"98502","city":"Olympia"},"5667930":{"name":"Fieldstone Memory Care of Spokane","zip":"99223","city":"Spokane"},"5667931":{"name":"Fieldstone Memory Care Wenatchee","zip":"98801","city":"Wenatchee"},"5667932":{"name":"Fieldstone Memory Care Yakima","zip":"98908","city":"Yakima"},"5667933":{"name":"Fieldstone OrchardWest","zip":"98908","city":"Yakima"},"5667934":{"name":"Fir Lane Health &amp; Rehab Center","zip":"98584","city":"Shelton"},"5667935":{"name":"Florence of Seattle","zip":"98106","city":"Seattle"},"5667936":{"name":"Florence of Seattle at Arbor Heights","zip":"98136","city":"Seattle"},"5667937":{"name":"Forest Ridge Health &amp; Rehab Center","zip":"98312","city":"Bremerton"},"5667938":{"name":"Fort Vancouver Assisted Living","zip":"98664","city":"Vancouver"},"5667939":{"name":"Fort Vancouver Post Acute","zip":"98664","city":"Vancouver"},"5667940":{"name":"Foundation House at Northgate","zip":"98125","city":"Seattle"},"5667941":{"name":"Franklin Hills Health &amp; Rehab Center","zip":"99208","city":"Spokane"},"5667942":{"name":"Frontier Rehab &amp; Extended Care","zip":"98632","city":"Longview"},"5667943":{"name":"Garden Court Retirement Community","zip":"98204","city":"Everett"},"5667944":{"name":"Garden Courte Memory Care","zip":"98506","city":"Olympia"},"5667945":{"name":"Garden Terrace Healthcare Center (SNF)","zip":"98003","city":"Federal Way"},"5667946":{"name":"Garfield County Hospital District","zip":"99347","city":"Pomeroy"},"5667947":{"name":"Gibraltar Senior Living","zip":"98445","city":"Tacoma"},"5667948":{"name":"Gig Harbor Court","zip":"98335","city":"Gig Harbor"},"5667949":{"name":"Glenwood Place Senior Living","zip":"98662","city":"Vancouver"},"5667950":{"name":"Golden Sands Regency Long Beach","zip":"98640","city":"Ocean Park"},"5667951":{"name":"Good Samaritan Health Care Center","zip":"98902","city":"Yakima"},"5667952":{"name":"Good Samaritan Society - Spokane Valley AL","zip":"99016","city":"Spokane Valley"},"5667953":{"name":"Good Samaritan Society - Spokane Valley SNF","zip":"99016","city":"Spokane Valley"},"5667954":{"name":"Good Samaritan Society - Stafholt SNF","zip":"98230","city":"Blaine"},"5667955":{"name":"Grace Retirement Home","zip":"98248","city":"Ferndale"},"5667956":{"name":"Grandview Assisted Living","zip":"98930","city":"Grandview"},"5667957":{"name":"Grandview Village, Inc.","zip":"98270","city":"Marysville"},"5667958":{"name":"Grays Harbor Health &amp; Rehab","zip":"98520","city":"Aberdeen"},"5667959":{"name":"Guardian Angel Homes Liberty Lake","zip":"99019","city":"Liberty Lake"},"5667960":{"name":"Guardian Angel Homes Richland","zip":"99352","city":"Richland"},"5667961":{"name":"Halcyon Group Home","zip":"98008","city":"Bellevue"},"5667962":{"name":"Hallmark Manor","zip":"98003","city":"Federal Way"},"5667963":{"name":"Harbor Place at Cottesmore","zip":"98335","city":"Gig Harbor"},"5667964":{"name":"Harbor Tower Village","zip":"98277","city":"Oak Harbor"},"5667965":{"name":"Harbour Pointe Senior Living","zip":"98275","city":"Mukilteo"},"5667966":{"name":"Haven in Allyn","zip":"98524","city":"Allyn"},"5667967":{"name":"Hawthorne Court Retirement Community","zip":"99336","city":"Kennewick"},"5667968":{"name":"Hearthside Manor","zip":"98466","city":"University Place"},"5667969":{"name":"Heartwood Extended Health Care","zip":"98404","city":"Tacoma"},"5667737":{"name":"Helping Hands for the Disabled","zip":"98008","city":"Bellevue"},"5667970":{"name":"Heritage Heights at Lake Chelan","zip":"98816","city":"Chelan"},"5667971":{"name":"Heritage House at Mountain View","zip":"98321","city":"Buckley"},"5667972":{"name":"Heritage House Morton","zip":"98356","city":"Morton"},"5667973":{"name":"High Point Village","zip":"98022","city":"Enumclaw"},"5667974":{"name":"Highgate Senior Living - Bellingham","zip":"98226","city":"Bellingham"},"5667975":{"name":"Highgate Senior Living - Vancouver","zip":"98665","city":"Vancouver"},"5667976":{"name":"Highgate Senior Living - Wenatchee","zip":"98801","city":"Wenatchee"},"5667977":{"name":"Highgate Senior Living - Yakima","zip":"98908","city":"Yakima"},"5667978":{"name":"Highland Court Memory Care","zip":"98362","city":"Port Angeles"},"5667979":{"name":"Highland Health and Rehabilitation","zip":"98229","city":"Bellingham"},"5667980":{"name":"Home Place Respite","zip":"98233","city":"Burlington"},"5667981":{"name":"Home Place Special Care at Burlington","zip":"98233","city":"Burlington"},"5667982":{"name":"Home Place Special Care at Oak Harbor","zip":"98277","city":"Oak Harbor"},"5667983":{"name":"Ida Culver House - Ravenna","zip":"98115","city":"Seattle"},"5667984":{"name":"Ida Culver House Broadview","zip":"98133","city":"Seattle"},"5667985":{"name":"Island House","zip":"98040","city":"Mercer Island"},"5667986":{"name":"Issaquah Nursing and Rehabilitation Center","zip":"98027","city":"Issaquah"},"5667987":{"name":"Just Like Home Resident Care, Inc.","zip":"98944","city":"Sunnyside"},"5667988":{"name":"Kadie Glen Assisted Living","zip":"98802","city":"East Wenatchee"},"5667989":{"name":"Kenmore Senior Living","zip":"98028","city":"Kenmore"},"5667990":{"name":"Keystone","zip":"98103","city":"Seattle"},"5667991":{"name":"Kline Galland Home","zip":"98118","city":"Seattle"},"5667992":{"name":"Klondike Hills Assisted Living","zip":"99166","city":"Republic"},"5667993":{"name":"LaDow Court Assisted Living","zip":"99130","city":"Garfield"},"5667994":{"name":"Lake Ridge Center","zip":"98837","city":"Moses Lake"},"5667995":{"name":"Lakeview of Kirkland","zip":"98033","city":"Kirkland"},"5667996":{"name":"Landmark Care and Rehabilitation","zip":"98902","city":"Yakima"},"5667997":{"name":"Laurel Cove Community","zip":"98155","city":"Shoreline"},"5667998":{"name":"Liberty Shores Assisted Living Community","zip":"98370","city":"Poulsbo"},"5667999":{"name":"Life Care Center of Federal Way","zip":"98003","city":"Federal Way"},"5668000":{"name":"Life Care Center of Kennewick","zip":"99336","city":"Kennewick"},"5668001":{"name":"Life Care Center of Kirkland","zip":"98034","city":"Kirkland"},"5668002":{"name":"Life Care Center of Mt. Vernon","zip":"98274","city":"Mount Vernon"},"5668003":{"name":"Life Care Center of Port Orchard","zip":"98366","city":"Port Orchard"},"5668004":{"name":"Life Care Center of Port Townsend","zip":"98368","city":"Port Townsend"},"5668005":{"name":"Life Care Center of Puyallup","zip":"98372","city":"Puyallup"},"5668006":{"name":"Life Care Center of Richland","zip":"99352","city":"Richland"},"5668007":{"name":"Life Care Center of Skagit Valley","zip":"98284","city":"Sedro-Woolley"},"5668008":{"name":"Life Care Center of South Hill","zip":"98374","city":"Puyallup"},"5668009":{"name":"Lighthouse Memory Care","zip":"98221","city":"Anacortes"},"5668010":{"name":"Linden Grove Center","zip":"98372","city":"Puyallup"},"5668011":{"name":"Living Court Assisted Living","zip":"98022","city":"Enumclaw"},"5668012":{"name":"Lynden Manor","zip":"98264","city":"Lynden"},"5668013":{"name":"Lynnwood Post-Acute Rehabilitation Center","zip":"98037","city":"Lynnwood"},"5668014":{"name":"Madison Avenue Retirement Center","zip":"98110","city":"Bainbridge Island"},"5668015":{"name":"Madrona House","zip":"98110","city":"Bainbridge Island"},"5668016":{"name":"Magnolia Care Enhanced Living","zip":"99207","city":"Spokane"},"5668017":{"name":"Mallard Landing Assisted Living","zip":"98604","city":"Battle Ground"},"5668018":{"name":"Manor Care Health Services Lacey","zip":"98503","city":"Lacey"},"5668019":{"name":"Manor Care Health Services Lynnwood","zip":"98037","city":"Lynnwood"},"5668020":{"name":"Manor Care Health Services Salmon Creek","zip":"98686","city":"Vancouver"},"5668021":{"name":"Manor Care Health Services Spokane","zip":"99205","city":"Spokane"},"5668022":{"name":"Manor Care Health Services Tacoma","zip":"98409","city":"Tacoma"},"5668023":{"name":"Manor Care of Gig Harbor","zip":"98335","city":"Gig Harbor"},"5668024":{"name":"Maple Creek of Lakewood","zip":"98499","city":"Lakewood"},"5668025":{"name":"Maple Ridge Assisted Living Community LLC","zip":"98249","city":"Freeland"},"5668026":{"name":"Marine Courte Memory Care Community","zip":"98312","city":"Bremerton"},"5668027":{"name":"Marysville Care Center","zip":"98270","city":"Marysville"},"5668028":{"name":"Meadow Greens","zip":"98264","city":"Lynden"},"5668029":{"name":"Memory Care at the Lodge","zip":"98503","city":"Lacey"},"5668030":{"name":"Merrill Gardens at Auburn","zip":"98002","city":"Auburn"},"5668031":{"name":"Merrill Gardens at Ballard","zip":"98107","city":"Seattle"},"5668032":{"name":"Merrill Gardens at First Hill","zip":"98101","city":"Seattle"},"5668033":{"name":"Merrill Gardens at Kirkland","zip":"98033","city":"Kirkland"},"5668034":{"name":"Merrill Gardens at Renton Centre","zip":"98057","city":"Renton"},"5668035":{"name":"Merrill Gardens at Tacoma","zip":"98465","city":"Tacoma"},"5668036":{"name":"Merrill Gardens at the University","zip":"98105","city":"Seattle"},"5668037":{"name":"Merrill Gardens of Burien","zip":"98166","city":"Burien"},"5668038":{"name":"Mill Creek Retirement Community","zip":"98012","city":"Mill Creek"},"5668039":{"name":"Mill Ridge Village","zip":"98354","city":"Milton"},"5668040":{"name":"Mira Vista Care Center","zip":"98274","city":"Mount Vernon"},"5668041":{"name":"Mission Healthcare at Bellevue","zip":"98007","city":"Bellevue"},"5668042":{"name":"Mission Healthcare at Renton","zip":"98055","city":"Renton"},"5668043":{"name":"Monroe House Retirement &amp; Care Center","zip":"98837","city":"Moses Lake"},"5668044":{"name":"Montesano Health &amp; Rehab Center","zip":"98563","city":"Montesano"},"5668045":{"name":"Moran Vista Senior Living","zip":"99223","city":"Spokane"},"5668046":{"name":"Mountain Meadows Senior Living Campus","zip":"98826","city":"Leavenworth"},"5668047":{"name":"Mountain View Rehab and Care Center","zip":"98270","city":"Marysville"},"5668048":{"name":"Mountlake Terrace Plaza","zip":"98043","city":"Mountlake Terrace"},"5668049":{"name":"Mt. Baker Care Center","zip":"98225","city":"Bellingham"},"5668050":{"name":"Mukilteo Memory Care","zip":"98275","city":"Mukilteo"},"5668051":{"name":"Murano Senior Living","zip":"98104","city":"Seattle"},"5668052":{"name":"Narrows Glen","zip":"98406","city":"Tacoma"},"5668053":{"name":"New Westside Terrace","zip":"98632","city":"Longview"},"5668054":{"name":"Nikkei Manor","zip":"98104","city":"Seattle"},"5668055":{"name":"North Auburn Rehab &amp; Health Center","zip":"98002","city":"Auburn"},"5668056":{"name":"North Cascades Health &amp; Rehab Center","zip":"98226","city":"Bellingham"},"5668057":{"name":"North Central Care and Rehabilitation","zip":"99205","city":"Spokane"},"5668058":{"name":"North Creek Retirement &amp; Assisted Living","zip":"98012","city":"Bothell"},"5668059":{"name":"North Point Village","zip":"99218","city":"Spokane"},"5668060":{"name":"North Valley Extended Care","zip":"98855","city":"Tonasket"},"5668061":{"name":"Northgate Plaza","zip":"98125","city":"Seattle"},"5668062":{"name":"Northgate Retirement Community","zip":"98125","city":"Seattle"},"5668063":{"name":"Northwoods Lodge","zip":"98383","city":"Silverdale"},"5668064":{"name":"Olympia Transitional Care &amp; Rehabilitation","zip":"98506","city":"Olympia"},"5668065":{"name":"Olympic Alzheimer's Residence","zip":"98335","city":"Gig Harbor"},"5668066":{"name":"Olympic Place Retirement","zip":"98223","city":"Arlington"},"5668067":{"name":"Olympics West Retirement Inn","zip":"98512","city":"Olympia"},"5668068":{"name":"Orchard Crest","zip":"99216","city":"Spokane Valley"},"5668069":{"name":"Orchard Park Health Care Center","zip":"98409","city":"Tacoma"},"5668070":{"name":"Orchard Park Retirement","zip":"98225","city":"Bellingham"},"5668071":{"name":"Orchard Pointe Memory Care Comm.","zip":"98366","city":"Port Orchard"},"5668072":{"name":"Pacific Care and Rehabilitation","zip":"98550","city":"Hoquiam"},"5668073":{"name":"Palouse Country Assisted Living","zip":"99012","city":"Fairfield"},"5668074":{"name":"Paramount Rehabilitation and Nursing","zip":"98144","city":"Seattle"},"5668075":{"name":"Park Manor Rehabilitation Center","zip":"99362","city":"Walla Walla"},"5668076":{"name":"Park Ridge Care Center","zip":"98155","city":"Shoreline"},"5668077":{"name":"Park Rose Care Center","zip":"98405","city":"Tacoma"},"5668078":{"name":"Park View Villas, Inc.","zip":"98363","city":"Port Angeles"},"5668079":{"name":"Park Vista Retirement &amp; Assisted Living","zip":"98366","city":"Port Orchard"},"5668080":{"name":"Park West Care Center","zip":"98116","city":"Seattle"},"5668081":{"name":"Parkview at Wheatland Village","zip":"99362","city":"Walla Walla"},"5668082":{"name":"Parkview Estates Senior Living Community","zip":"99336","city":"Kennewick"},"5668083":{"name":"Patit Creek Adult Residential Care","zip":"99328","city":"Dayton"},"5668084":{"name":"Patriots Glen","zip":"98007","city":"Bellevue"},"5668085":{"name":"Patriots Landing","zip":"98327","city":"DuPont"},"5668086":{"name":"Peoples Retirement Community","zip":"98404","city":"Tacoma"},"5668087":{"name":"Peters Creek Retirement Community","zip":"98052","city":"Redmond"},"5668088":{"name":"Pine Ridge Alzheimers Special Care Center","zip":"99206","city":"Spokane Valley"},"5668089":{"name":"Pioneer Place Memory Haven","zip":"98445","city":"Tacoma"},"5668090":{"name":"Ponderosa Assisted Living Community","zip":"98902","city":"Yakima"},"5668091":{"name":"Prestige Assisted Living at Richland","zip":"99354","city":"Richland"},"5668092":{"name":"Prestige Assisted Living-Hazel Dell","zip":"98665","city":"Vancouver"},"5668093":{"name":"Prestige Care &amp; Rehab-Pinewood Terrace","zip":"99114","city":"Colville"},"5668094":{"name":"Prestige Care &amp; Rehabilitation-Burlington","zip":"98233","city":"Burlington"},"5668095":{"name":"Prestige Care &amp; Rehabilitation-Camas","zip":"98607","city":"Camas"},"5668096":{"name":"Prestige Care &amp; Rehabilitation-Clarkston","zip":"99403","city":"Clarkston"},"5668097":{"name":"Prestige Care &amp; Rehabilitation-Parkside","zip":"98903","city":"Union Gap"},"5668098":{"name":"Prestige Care &amp; Rehabilitation-Sunnyside","zip":"98944","city":"Sunnyside"},"5668099":{"name":"Prestige Post-Acute and Rehab-Centralia","zip":"98531","city":"Centralia"},"5668100":{"name":"Prestige Post-Acute and Rehab-Edmonds","zip":"98026","city":"Edmonds"},"5668101":{"name":"Prestige Post-Acute and Rehab-Kittitas","zip":"98926","city":"Ellensburg"},"5668102":{"name":"Prestige Senior Living at Colonial Vista","zip":"98801","city":"Wenatchee"},"5668103":{"name":"Prestige Senior Living at East Wenatchee","zip":"98802","city":"East Wenatchee"},"5668104":{"name":"Prestige Senior Living at Hearthstone","zip":"98926","city":"Ellensburg"},"5668105":{"name":"Prestige Senior Living Auburn Meadows","zip":"98002","city":"Auburn"},"5668106":{"name":"Prestige Senior Living Bridgewood","zip":"98684","city":"Vancouver"},"5668107":{"name":"Prestige Senior Living Monticello Park","zip":"98632","city":"Longview"},"5668108":{"name":"Prestige Senior Living Rosemont","zip":"98597","city":"Yelm"},"5668109":{"name":"Puget Sound Health Care Center","zip":"98502","city":"Olympia"},"5668110":{"name":"Puyallup Nursing &amp; Rehabilitation Center","zip":"98372","city":"Puyallup"},"5668111":{"name":"Puyallup Valley Enhanced Residential Care","zip":"98371","city":"Puyallup"},"5668112":{"name":"Quail Hollow Assisted Living","zip":"99109","city":"Chewelah"},"5668113":{"name":"Queen Anne Healthcare - Avamere","zip":"98109","city":"Seattle"},"5668114":{"name":"Queen Anne Manor","zip":"98109","city":"Seattle"},"5668115":{"name":"Queen Anne Retirement Community","zip":"98109","city":"Seattle"},"5668116":{"name":"Rainier Rehabilitation","zip":"98372","city":"Puyallup"},"5668117":{"name":"Red Oak Residence of North Bend","zip":"98045","city":"North Bend"},"5668118":{"name":"Redmond Care and Rehabilitation Center","zip":"98052","city":"Redmond"},"5668119":{"name":"Redmond Heights","zip":"98052","city":"Redmond"},"5668120":{"name":"Regency at Northpointe","zip":"99218","city":"Spokane"},"5668121":{"name":"Regency at the Park","zip":"99324","city":"College Place"},"5668122":{"name":"Regency Canyon Lakes","zip":"99337","city":"Kennewick"},"5668123":{"name":"Regency Care Center at Monroe","zip":"98272","city":"Monroe"},"5668124":{"name":"Regency Harmony House","zip":"98812","city":"Brewster"},"5668125":{"name":"Regency Newcastle","zip":"98059","city":"Newcastle"},"5668126":{"name":"Regency North Bend Rehab &amp; Nursing Center","zip":"98045","city":"North Bend"},"5668127":{"name":"Regency Olympia","zip":"98501","city":"Olympia"},"5668128":{"name":"Regency Omak","zip":"98841","city":"Omak"},"5668129":{"name":"Regency on Whidbey","zip":"98277","city":"Oak Harbor"},"5668130":{"name":"Regency Pullman","zip":"99163","city":"Pullman"},"5668131":{"name":"Regency Wenatchee","zip":"98801","city":"Wenatchee"},"5668132":{"name":"Richland Rehabilitation Center","zip":"99354","city":"Richland"},"5668133":{"name":"Richmond Beach Rehab","zip":"98177","city":"Seattle"},"5668134":{"name":"Ridgefield Living Center, Inc.","zip":"98642","city":"Ridgefield"},"5668135":{"name":"River Mountain Village Assisted Living","zip":"99156","city":"Newport"},"5668136":{"name":"Riverside East","zip":"98011","city":"Bothell"},"5668137":{"name":"Riverside Nursing &amp; Rehab Center","zip":"98531","city":"Centralia"},"5668138":{"name":"Riverside Place","zip":"98550","city":"Hoquiam"},"5668139":{"name":"Riverview Lutheran Care Center","zip":"99207","city":"Spokane"},"5668140":{"name":"Riverview Manor","zip":"98942","city":"Selah"},"5668141":{"name":"Riverview Terrace","zip":"99207","city":"Spokane"},"5668142":{"name":"Riverwest Retirement Community","zip":"98801","city":"Wenatchee"},"5668143":{"name":"Rock Cove Assisted Living","zip":"98648","city":"Stevenson"},"5668144":{"name":"Rocky Bay Health Care Facility","zip":"98329","city":"Gig Harbor"},"5668145":{"name":"Roo-Lan Healthcare Center","zip":"98503","city":"Lacey"},"5668146":{"name":"Rosario Assisted Living","zip":"98221","city":"Anacortes"},"5668147":{"name":"Rose Garden Estates Assisted Living","zip":"99169","city":"Ritzville"},"5668148":{"name":"Rose Pointe Assisted Living","zip":"99216","city":"Spokane"},"5668149":{"name":"Rosewood Courte Memory Care Community","zip":"98020","city":"Edmonds"},"5668150":{"name":"Rosewood Villa","zip":"98225","city":"Bellingham"},"5668151":{"name":"Royal Columbian Retirement Inn","zip":"99336","city":"Kennewick"},"5668152":{"name":"Royal Park Health and Rehabilitation","zip":"99208","city":"Spokane"},"5668153":{"name":"Royal Park Retirement Center","zip":"99208","city":"Spokane"},"5668154":{"name":"Ruthaven","zip":"98042","city":"Covington"},"5668155":{"name":"Sagebrook Senior Living at Bellevue","zip":"98008","city":"Bellevue"},"5668156":{"name":"Saint Anne Nursing &amp; Rehab Center","zip":"98125","city":"Seattle"},"5668157":{"name":"San Juan Villa","zip":"98368","city":"Port Townsend"},"5668158":{"name":"Seattle Medical Post Acute Care","zip":"98122","city":"Seattle"},"5668159":{"name":"Sequim Health and Rehabilitation Center","zip":"98382","city":"Sequim"},"5668160":{"name":"Sharon Care Assisted Living","zip":"98531","city":"Centralia"},"5668161":{"name":"Sharon Care Center","zip":"98531","city":"Centralia"},"5668162":{"name":"Shelton Health &amp; Rehab Center","zip":"98584","city":"Shelton"},"5668163":{"name":"Sherwood Assisted Living","zip":"98382","city":"Sequim"},"5668164":{"name":"Shoreline Health &amp; Rehabilitation Center","zip":"98155","city":"Seattle"},"5668165":{"name":"Shuksan Healthcare Center","zip":"98225","city":"Bellingham"},"5668166":{"name":"Silver Creek Retirement &amp; Assisted Living","zip":"98375","city":"Puyallup"},"5668167":{"name":"Snohomish Health and Rehabilitation","zip":"98290","city":"Snohomish"},"5668168":{"name":"Somerset Retirement Apartments","zip":"98632","city":"Longview"},"5668169":{"name":"Sound Vista Village","zip":"98335","city":"Gig Harbor"},"5668170":{"name":"Soundview Rehabilitation and Health Care","zip":"98221","city":"Anacortes"},"5668171":{"name":"South Hill Village","zip":"99223","city":"Spokane"},"5668172":{"name":"Spiritwood at Pine Lake","zip":"98029","city":"Issaquah"},"5668173":{"name":"Spring Creek Retirement &amp; Assisted Living","zip":"98226","city":"Bellingham"},"5668174":{"name":"Spring Ridge Retirement Community","zip":"98404","city":"Tacoma"},"5668175":{"name":"St. Francis of Bellingham","zip":"98225","city":"Bellingham"},"5668176":{"name":"Stafford Healthcare - SeaTac","zip":"98198","city":"Des Moines"},"5668177":{"name":"Stafford Healthcare at Belmont","zip":"98310","city":"Bremerton"},"5668178":{"name":"Stafford Healthcare at Ridgemont","zip":"98366","city":"Port Orchard"},"5668179":{"name":"Stafford Suites at Kent","zip":"98030","city":"Kent"},"5668180":{"name":"Stafford Suites at Port Orchard","zip":"98366","city":"Port Orchard"},"5668181":{"name":"Stafford Suites at Sumner","zip":"98390","city":"Sumner"},"5668182":{"name":"Stephen's Place","zip":"98648","city":"Vancouver"},"5668183":{"name":"Stillwater House","zip":"98052","city":"Redmond"},"5668184":{"name":"Stillwaters Colonial Residence","zip":"98531","city":"Centralia"},"5668185":{"name":"Sullivan Park Assisted Living Comm.","zip":"99216","city":"Spokane Valley"},"5668186":{"name":"Sullivan Park Care Center","zip":"99216","city":"Spokane"},"5668187":{"name":"Summer Hill Assisted Living","zip":"98277","city":"Oak Harbor"},"5668188":{"name":"Summer Wood Alzheimer's Special Care Center","zip":"98837","city":"Moses Lake"},"5668189":{"name":"Summit Place at Mt. Baker","zip":"98225","city":"Bellingham"},"5668190":{"name":"Sun Terrace Prosser","zip":"99350","city":"Prosser"},"5668191":{"name":"Sunnyside Assisted Living","zip":"98944","city":"Sunnyside"},"5668192":{"name":"Sunrise of Bellevue","zip":"98008","city":"Bellevue"},"5668193":{"name":"Sunrise of Bothell","zip":"98011","city":"Bothell"},"5668194":{"name":"Sunrise of Edmonds","zip":"98020","city":"Edmonds"},"5668195":{"name":"Sunrise of Lynnwood","zip":"98026","city":"Edmonds"},"5668196":{"name":"Sunrise of Mercer Island","zip":"98040","city":"Mercer Island"},"5668197":{"name":"Sunrise of Northgate","zip":"98125","city":"Seattle"},"5668198":{"name":"Sunrise of Redmond","zip":"98007","city":"Bellevue"},"5668199":{"name":"Sunrise View Convalescent Center","zip":"98203","city":"Everett"},"5668200":{"name":"Sunrise View Retirement Villa","zip":"98203","city":"Everett"},"5668201":{"name":"Sunshine Health and Rehabilitation","zip":"99206","city":"Spokane Valley"},"5668202":{"name":"Sunshine Terrace","zip":"99206","city":"Spokane"},"5668203":{"name":"Tacoma Nursing and Rehabilitation Center","zip":"98444","city":"Tacoma"},"5668204":{"name":"Tekoa Care Center","zip":"99033","city":"Tekoa"},"5668205":{"name":"The Arbor at Bremerton","zip":"98312","city":"Bremerton"},"5668206":{"name":"The Bellettini","zip":"98004","city":"Bellevue"},"5668207":{"name":"The Bellingham at Orchard","zip":"98225","city":"Bellingham"},"5668208":{"name":"The Bridge at Mt. Vernon","zip":"98274","city":"Mount Vernon"},"5668209":{"name":"The Cambridge","zip":"98848","city":"Quincy"},"5668210":{"name":"The Courtyard at Colfax","zip":"99111","city":"Colfax"},"5668211":{"name":"The Evergreen Inn","zip":"98660","city":"Vancouver"},"5668212":{"name":"The Gardens at Marysville","zip":"98270","city":"Marysville"},"5668213":{"name":"The Gardens at Town Square","zip":"98004","city":"Bellevue"},"5668214":{"name":"The Gardens on University","zip":"99206","city":"Spokane"},"5668215":{"name":"The Hampton Alzheimer Special Care Center","zip":"98512","city":"Tumwater"},"5668216":{"name":"The Hearthstone (ALF)","zip":"98103","city":"Seattle"},"5668217":{"name":"The Hearthstone (SNF)","zip":"98103","city":"Seattle"},"5668218":{"name":"The Lakeshore","zip":"98178","city":"Seattle"},"5668219":{"name":"The Lodge at Mallard's Landing","zip":"98335","city":"Gig Harbor"},"5668220":{"name":"The Oaks at Forest Bay","zip":"98133","city":"Seattle"},"5668221":{"name":"The Oaks at Lakewood","zip":"98499","city":"Lakewood"},"5668222":{"name":"The Oaks at Timberline","zip":"98663","city":"Vancouver"},"5668223":{"name":"The Quarry Senior Living","zip":"98683","city":"Vancouver"},"5668224":{"name":"The Ridge","zip":"98383","city":"Silverdale"},"5668225":{"name":"The Rivers at Puyallup","zip":"98371","city":"Puyallup"},"5668226":{"name":"The Sequoia","zip":"98506","city":"Olympia"},"5668227":{"name":"The Summit at First Hill","zip":"98101","city":"Seattle"},"5668228":{"name":"The Terrace at Beverly Lake","zip":"98203","city":"Everett"},"5668229":{"name":"The Village Senior Living","zip":"98466","city":"Tacoma"},"5668230":{"name":"The Villager","zip":"98611","city":"Castle Rock"},"5668231":{"name":"Toppenish Nursing &amp; Rehab Center","zip":"98948","city":"Toppenish"},"5668232":{"name":"Touchmark at Fairway Village","zip":"98683","city":"Vancouver"},"5668233":{"name":"Touchmark On South Hill","zip":"99203","city":"Spokane"},"5668234":{"name":"Touchmark on South Hill Health &amp; Rehab Center","zip":"99203","city":"Spokane"},"5668235":{"name":"Tri-Cities Retirement Inn","zip":"99301","city":"Pasco"},"5668236":{"name":"University House at Wallingford","zip":"98103","city":"Seattle"},"5668237":{"name":"University House Issaquah","zip":"98029","city":"Issaquah"},"5668238":{"name":"Unlisted (member)","zip":"","city":""},"5668239":{"name":"Van Mall Retirement Community","zip":"98662","city":"Vancouver"},"5668240":{"name":"Van Vista Assisted Living","zip":"98660","city":"Vancouver"},"5668241":{"name":"Vancouver Orchards Retirement Community","zip":"98682","city":"Vancouver"},"5668242":{"name":"Vancouver Specialty &amp; Rehabilitative Care","zip":"98664","city":"Vancouver"},"5668243":{"name":"View Ridge Care Center","zip":"98203","city":"Everett"},"5668244":{"name":"Village at the Harbour","zip":"98250","city":"Friday Harbor"},"5668245":{"name":"Village Green Retirement Campus","zip":"98003","city":"Federal Way"},"5668246":{"name":"Washington Center for Comprehensive Rehab","zip":"98144","city":"Seattle"},"5667744":{"name":"Washington Health Care Association","zip":"98501","city":"Tumwater"},"5668247":{"name":"Washington Oakes Retirement Community","zip":"98201","city":"Everett"},"5668248":{"name":"Welcome Home Oak Harbor Senior Memory Care","zip":"98277","city":"Oak Harbor"},"5668249":{"name":"Westhaven Villa","zip":"98520","city":"Aberdeen"},"5668250":{"name":"Wheatland Village","zip":"99362","city":"Walla Walla"},"5668251":{"name":"Where the Heart Is","zip":"98233","city":"Burlington"},"5668252":{"name":"Whitman Health &amp; Rehabilitation Center","zip":"99111","city":"Colfax"},"5668253":{"name":"Willapa Harbor Care Center","zip":"98577","city":"Raymond"},"5668254":{"name":"Willow Grove Home","zip":"99218","city":"Spokane"},"5668255":{"name":"Willow Springs Care and Rehabilitation","zip":"98908","city":"Yakima"},"5668256":{"name":"Windsong at Southridge","zip":"99338","city":"Kennewick"},"5668257":{"name":"Woodland Care Center","zip":"98674","city":"Woodland"},"5668258":{"name":"Woodland Care Center &amp; Assisted Living","zip":"98674","city":"Woodland"},"5668259":{"name":"Woodland Retirement &amp; Assisted Living","zip":"98503","city":"Lacey"},"5668260":{"name":"Woodland Village","zip":"98532","city":"Chehalis"},"5668261":{"name":"Woodway Senior Living","zip":"98225","city":"Bellingham"},"5668262":{"name":"Wyatt House Retirement Center","zip":"98110","city":"Bainbridge Island"}}
    